ONEWEB-0271             
1 48989U 21060Y   25324.78718369  .00000038  00000+0  64968-4 0  9999
2 48989  87.9033 270.2707 0002110  81.8676 278.2694 13.16593474212247
ONEWEB-0272             
1 48990U 21060Z   25324.88534139 -.00000069  00000+0 -21433-3 0  9998
2 48990  87.9015 270.2700 0002016  85.2651 274.8710 13.16593260212208
ONEWEB-0273             
1 48991U 21060AA  25324.90752021  .00000057  00000+0  11607-3 0  9991
2 48991  87.9022 270.2591 0002078  78.6901 281.4463 13.16594187212182
ONEWEB-0274             
1 48992U 21060AB  25324.78084296  .00000087  00000+0  19410-3 0  9993
2 48992  87.9012 270.3093 0001853  90.4979 269.6364 13.16593440212209
ONEWEB-0275             
1 48993U 21060AC  25324.84575609  .00000055  00000+0  10931-3 0  9998
2 48993  87.9022 270.2649 0001928  81.6330 278.5020 13.16592579212146
ONEWEB-0276             
1 48994U 21060AD  25324.87900742 -.00000068  00000+0 -21114-3 0  9993
2 48994  87.9022 270.2575 0002032  74.7331 285.4024 13.16593118212169
ONEWEB-0277             
1 48995U 21060AE  25324.89168330 -.00000018  00000+0 -80987-4 0  9994
2 48995  87.9009 270.2814 0002019  85.1109 275.0252 13.16597472212159
ONEWEB-0278             
1 48996U 21060AF  25324.88218652 -.00000037  00000+0 -12951-3 0  9993
2 48996  87.9022 270.2533 0001802  73.1296 287.0032 13.16595429212289
ONEWEB-0279             
1 48997U 21060AG  25324.89010353 -.00000036  00000+0 -12678-3 0  9998
2 48997  87.9023 270.2492 0002126  85.4256 274.7118 13.16592519212215
ONEWEB-0280             
1 48998U 21060AH  25324.90513098  .00000056  00000+0  11369-3 0  9991
2 48998  87.9020 270.2524 0002097  70.8459 289.2899 13.16596385212154
ONEWEB-0281             
1 48999U 21060AJ  25324.83469012 -.00000009  00000+0 -57702-4 0  9992
2 48999  87.9021 270.2622 0001796  82.0804 278.0530 13.16593965212215
ONEWEB-0282             
1 49000U 21060AK  25324.86476866 -.00000021  00000+0 -88274-4 0  9996
2 49000  87.9024 270.2669 0002062  78.5764 281.5598 13.16593995212198
ONEWEB-0283             
1 49001U 21060AL  25324.77769139  .00000088  00000+0  19741-3 0  9998
2 49001  87.9022 270.2848 0002010  81.8453 278.2906 13.16595047212197
ONEWEB-0284             
1 49002U 21060AM  25324.84735412  .00000036  00000+0  60835-4 0  9998
2 49002  87.9031 270.2587 0001977  67.7314 292.4026 13.16593949212187
ONEWEB-0285             
1 49075U 21075A   25324.62789671  .00000178  00000+0  46034-3 0  9997
2 49075  87.8964  32.0913 0001813  99.2084 260.9249 13.12443451207854
ONEWEB-0286             
1 49076U 21075B   25324.22858646 -.00000394  00000+0 -11314-2 0  9997
2 49076  87.8962  32.2048 0001599 104.8357 255.2949 13.12442840207159
ONEWEB-0287             
1 49077U 21075C   25324.49404808 -.00000379  00000+0 -10104-2 0  9993
2 49077  87.9139  47.3636 0001204 105.2781 254.8484 13.17649653206149
ONEWEB-0288             
1 49078U 21075D   25325.11925139  .00000194  00000+0  50364-3 0  9995
2 49078  87.8967  31.9891 0001680  96.3159 263.8161 13.12441703207893
ONEWEB-0289             
1 49079U 21075E   25324.53272162  .00000015  00000+0  44109-5 0  9996
2 49079  87.9131  47.3738 0001826  88.7559 271.3782 13.17652004206727
ONEWEB-0290             
1 49080U 21075F   25324.65774331  .00000040  00000+0  70515-4 0  9993
2 49080  87.9136  47.3089 0002143  88.7476 271.3901 13.17648612206154
ONEWEB-0291             
1 49081U 21075G   25324.64254645 -.00000010  00000+0 -57652-4 0  9990
2 49081  87.9141  47.3183 0001442  92.5738 267.5559 13.17647013206140
ONEWEB-0293             
1 49082U 21075H   25324.66785663  .00000040  00000+0  69103-4 0  9997
2 49082  87.9130  47.3361 0001753  97.6473 262.4857 13.17647049206171
ONEWEB-0294             
1 49083U 21075J   25325.12573455 -.00000026  00000+0 -10792-3 0  9999
2 49083  87.8969  31.9884 0001854  85.5644 274.5697 13.12441502207288
ONEWEB-0295             
1 49084U 21075K   25324.66701935  .00000025  00000+0  30566-4 0  9993
2 49084  87.9127  47.3408 0001414  96.1423 263.9870 13.17650537206137
ONEWEB-0296             
1 49085U 21075L   25325.10628000  .00000444  00000+0  11980-2 0  9997
2 49085  87.8968  31.9975 0001486  88.1751 271.9548 13.12442503207287
ONEWEB-0297             
1 49086U 21075M   25324.45095224 -.00000355  00000+0 -10214-2 0  9993
2 49086  87.8958  32.1609 0001669 100.8977 259.2339 13.12441925207801
ONEWEB-0298             
1 49087U 21075N   25324.67136902  .00000075  00000+0  16116-3 0  9992
2 49087  87.9131  47.3367 0001765 103.9817 256.1511 13.17647011206164
ONEWEB-0299             
1 49088U 21075P   25324.67292348  .00000046  00000+0  84091-4 0  9996
2 49088  87.9140  47.2962 0001541 103.1647 256.9656 13.17647072206143
ONEWEB-0300             
1 49089U 21075Q   25324.59531866 -.00000236  00000+0 -69219-3 0  9996
2 49089  87.8969  32.0902 0001876 110.8463 249.2866 13.12441411207840
ONEWEB-0301             
1 49090U 21075R   25325.11275850  .00000395  00000+0  10619-2 0  9998
2 49090  87.8968  31.9899 0001972 112.5628 247.5710 13.12440867207273
ONEWEB-0302             
1 49091U 21075S   25325.17602410  .00000460  00000+0  12425-2 0  9991
2 49091  87.8966  31.9850 0001753  90.7207 269.4122 13.12442444207268
ONEWEB-0304             
1 49092U 21075T   25324.49573669  .00000008  00000+0 -13009-4 0  9999
2 49092  87.9140  47.3622 0001617 100.3815 259.7499 13.17647136206093
ONEWEB-0305             
1 49093U 21075U   25324.64086457 -.00000486  00000+0 -12841-2 0  9993
2 49093  87.9142  47.3104 0000976  84.7246 275.3997 13.17650610206145
ONEWEB-0308             
1 49094U 21075V   25325.16952277  .00000283  00000+0  75109-3 0  9994
2 49094  87.8965  31.9792 0001752 100.0458 260.0868 13.12442030207273
ONEWEB-0309             
1 49095U 21075W   25324.64423584 -.00000292  00000+0 -78587-3 0  9996
2 49095  87.9139  47.3254 0001797  87.7308 272.4029 13.17649001206116
ONEWEB-0310             
1 49096U 21075X   25325.18413203  .00000407  00000+0  10967-2 0  9997
2 49096  87.8961  32.0152 0001758  95.8135 264.3194 13.12442073207908
ONEWEB-0311             
1 49097U 21075Y   25324.49911514 -.00000052  00000+0 -16753-3 0  9997
2 49097  87.9137  47.3506 0001388 107.8808 252.2475 13.17649448206140
ONEWEB-0312             
1 49098U 21075Z   25324.66617407  .00000096  00000+0  21499-3 0  9990
2 49098  87.9128  47.3451 0001422  93.3477 266.7818 13.17647082206143
ONEWEB-0313             
1 49099U 21075AA  25324.67111552  .00000329  00000+0  81429-3 0  9990
2 49099  87.9137  47.3518 0001606 102.7961 257.3350 13.17647570206133
ONEWEB-0314             
1 49100U 21075AB  25324.63748507 -.00000355  00000+0 -94732-3 0  9997
2 49100  87.9137  47.3078 0001371  94.2146 265.9142 13.17649058206100
ONEWEB-0315             
1 49101U 21075AC  25324.62452105  .00000046  00000+0  92543-4 0  9997
2 49101  87.8962  32.0739 0001478 109.9698 250.1590 13.12443818207818
ONEWEB-0316             
1 49102U 21075AD  25325.10549287  .00000136  00000+0  31215-3 0  9998
2 49102  87.9206  16.7970 0001762 100.1862 259.9469 13.18684082209785
ONEWEB-0317             
1 49103U 21075AE  25324.61802512 -.00000153  00000+0 -45968-3 0  9998
2 49103  87.8968  32.0923 0002386  86.8078 273.3323 13.12443226207831
ONEWEB-0318             
1 49104U 21075AF  25325.10219476 -.00001018  00000+0 -26141-2 0  9997
2 49104  87.9207  16.7851 0001595 101.9985 258.1326 13.18689386209746
ONEWEB-0319             
1 49105U 21075AG  25324.50079946  .00000017  00000+0  11122-4 0  9998
2 49105  87.9129  47.3719 0001331 106.2467 253.8811 13.17647465206125
ONEWEB-0323             
1 49106U 21075AH  25324.45581648 -.00000367  00000+0 -10551-2 0  9993
2 49106  87.8966  32.1112 0001067 105.9495 254.1751 13.12442844207178
ONEWEB-0329             
1 49107U 21075AJ  25324.50924543 -.00001442  00000+0 -37466-2 0  9994
2 49107  87.9125  47.3724 0001772  95.8474 264.2859 13.17655027206108
ONEWEB-0330             
1 49108U 21075AK  25324.66195348  .00000021  00000+0  21524-4 0  9995
2 49108  87.9129  47.3472 0001622  93.8945 266.2372 13.17651000206163
ONEWEB-0292             
1 49186U 21083A   25325.12455074 -.00000138  00000+0 -41279-3 0  9996
2 49186  87.8992   1.6178 0001657  99.0308 261.1008 13.13469340203618
ONEWEB-0303             
1 49187U 21083B   25325.17477220 -.00000229  00000+0 -61382-3 0  9997
2 49187  87.9210  16.7719 0001648 101.1543 258.9775 13.18685205202560
ONEWEB-0306             
1 49188U 21083C   25325.16487757  .00000099  00000+0  21821-3 0  9990
2 49188  87.9207  16.7584 0002041  95.1348 265.0017 13.18684759202606
ONEWEB-0307             
1 49189U 21083D   25325.11861390  .00000030  00000+0  47541-4 0  9998
2 49189  87.8990   1.6113 0001800  96.6495 263.4839 13.13467951203611
ONEWEB-0320             
1 49190U 21083E   25325.17229912 -.00000173  00000+0 -47201-3 0  9996
2 49190  87.9203  16.7869 0001859  98.5231 261.6112 13.18686935202566
ONEWEB-0321             
1 49191U 21083F   25325.02126050 -.00000019  00000+0 -79027-4 0  9991
2 49191  87.9186 315.9487 0002145  85.0824 275.0555 13.20773417209354
ONEWEB-0322             
1 49192U 21083G   25325.11439359  .00000134  00000+0  33131-3 0  9992
2 49192  87.8993   1.6134 0002319  96.6164 263.5229 13.13468889203604
ONEWEB-0324             
1 49193U 21083H   25325.15827561  .00000103  00000+0  22750-3 0  9994
2 49193  87.9208  16.7667 0001743  93.7976 266.3356 13.18689166202588
ONEWEB-0325             
1 49194U 21083J   25325.16158705  .00000134  00000+0  30602-3 0  9992
2 49194  87.9209  16.7846 0001893  99.3862 260.7485 13.18685344202597
ONEWEB-0326             
1 49195U 21083K   25325.10068179 -.00000179  00000+0 -48752-3 0  9998
2 49195  87.9207  16.7841 0001622 107.1553 252.9757 13.18685509202572
ONEWEB-0327             
1 49196U 21083L   25325.10040153  .00000123  00000+0  27807-3 0  9996
2 49196  87.9199  16.8055 0001698 110.5675 249.5639 13.18689231202596
